ASTROCAST-0404          
1 55112U 23001DH  26068.80836714  .00008870  00000+0  34436-3 0  9994
2 55112  97.5646 161.5422 0006847   1.1317 358.9936 15.26309833129366
STARLINK-30996          
1 59023U 24038A   26068.27030958 -.00001195  00000+0 -33911-4 0  9990
2 59023  43.0041  29.4218 0000498 228.2370 131.8439 15.27572837116064
